NORAD_CAT_ID,OBJECT_NAME,OBJECT_TYPE,EPOCH,MEAN_MOTION,ECCENTRICITY,INCLINATION,RA_OF_ASC_NODE,ARG_OF_PERICENTER,MEAN_ANOMALY,BSTAR,MEAN_MOTION_DOT,MEAN_MOTION_DDOT,TLE_LINE0,TLE_LINE1,TLE_LINE2,SEMIMAJOR_AXIS,PERIOD,APOGEE,PERIGEE,DECAYED
53590.0,STARLINK-4689,PAYLOAD,2024-07-23 22:12:32,15.08833969,0.0001514,53.2176,29.8464,84.4682,275.6483,-6.3549e-06,-3.89e-06,0.0,0 STARLINK-4689,1 53590U 22104C   24205.92537910 -.00000389  00000-0 -63549-5 0  9994,2 53590  53.2176  29.8464 0001514  84.4682 275.6483 15.08833969106323,6917.899,95.438,540.811,538.716,0.0
53590.0,STARLINK-4689,PAYLOAD,2024-07-24 22:03:18,15.08841645,0.0001232,53.2173,25.3863,128.2203,231.89,2.3799e-05,9.1e-07,0.0,0 STARLINK-4689,1 53590U 22104C   24206.91896862  .00000091  00000-0  23799-4 0  9998,2 53590  53.2173  25.3863 0001232 128.2203 231.8900 15.08841645106471,6917.875,95.437,540.593,538.888,0.0
53590.0,STARLINK-4689,PAYLOAD,2024-07-25 12:21:47,15.08841689,0.0001327,53.2172,22.7061,104.6242,255.4898,3.603e-05,2.86e-06,0.0,0 STARLINK-4689,1 53590U 22104C   24207.51513169  .00000286  00000-0  36030-4 0  9999,2 53590  53.2172  22.7061 0001327 104.6242 255.4898 15.08841689106563,6917.875,95.437,540.658,538.822,0.0
53590.0,STARLINK-4689,PAYLOAD,2024-07-26 04:15:39,15.08840347,0.0001149,53.2222,19.7328,76.0864,284.0256,9.1707e-05,1.172e-05,0.0,0 STARLINK-4689,1 53590U 22104C   24208.17753518  .00001172  00000-0  91707-4 0  9993,2 53590  53.2222  19.7328 0001149  76.0864 284.0256 15.08840347105627,6917.879,95.438,540.539,538.949,0.0
53590.0,STARLINK-4689,PAYLOAD,2024-07-26 21:44:53,15.08835462,0.0001079,53.223,16.4633,73.3092,286.8019,9.4461e-05,1.216e-05,0.0,0 STARLINK-4689,1 53590U 22104C   24208.90617850  .00001216  00000-0  94461-4 0  9991,2 53590  53.2230  16.4633 0001079  73.3092 286.8019 15.08835462106770,6917.894,95.438,540.506,539.013,0.0
53590.0,STARLINK-4689,PAYLOAD,2024-07-27 04:06:24,15.08852561,6.95e-05,53.2196,15.2773,84.4812,275.6259,0.00023307,3.425e-05,0.0,0 STARLINK-4689,1 53590U 22104C   24209.17112267  .00003425  00000-0  23307-3 0  9997,2 53590  53.2196  15.2773 0000695  84.4812 275.6259 15.08852561105779,6917.842,95.437,540.188,539.226,0.0
53590.0,STARLINK-4689,PAYLOAD,2024-07-27 10:27:58,15.08846563,0.0002375,53.2183,14.0872,79.4624,280.6635,0.00017433,2.488e-05,0.0,0 STARLINK-4689,1 53590U 22104C   24209.43609314  .00002488  00000-0  17433-3 0  9991,2 53590  53.2183  14.0872 0002375  79.4624 280.6635 15.08846563105818,6917.86,95.437,541.368,538.082,0.0
53590.0,STARLINK-4689,PAYLOAD,2024-07-28 03:57:14,15.08828291,0.0002018,53.2187,10.8137,79.8235,280.2985,-3.4052e-05,-8.3e-06,0.0,0 STARLINK-4689,1 53590U 22104C   24210.16475440 -.00000830  00000-0 -34052-4 0  9992,2 53590  53.2187  10.8137 0002018  79.8235 280.2985 15.08828291105920,6917.916,95.438,541.177,538.385,0.0
53590.0,STARLINK-4689,PAYLOAD,2024-07-28 10:18:48,15.0881742,0.000188,53.2111,9.6255,76.7621,283.358,-1.6575e-05,-5.52e-06,0.0,0 STARLINK-4689,1 53590U 22104C   24210.42972283 -.00000552  00000-0 -16575-4 0  9999,2 53590  53.2111   9.6255 0001880  76.7621 283.3580 15.08817420105966,6917.949,95.439,541.115,538.514,0.0
53590.0,STARLINK-4689,PAYLOAD,2024-07-28 18:15:42,15.0884525,0.0001055,53.2179,8.1401,87.8887,272.2226,-4.4257e-05,-9.92e-06,0.0,0 STARLINK-4689,1 53590U 22104C   24210.76091263 -.00000992  00000-0 -44257-4 0  9992,2 53590  53.2179   8.1401 0001055  87.8887 272.2226 15.08845250106011,6917.864,95.437,540.459,539.0,0.0
53590.0,STARLINK-4689,PAYLOAD,2024-07-29 10:09:33,15.0885365,0.0001112,53.218,5.1618,83.6221,276.4897,3.7839e-05,3.15e-06,0.0,0 STARLINK-4689,1 53590U 22104C   24211.42330345  .00000315  00000-0  37839-4 0  9998,2 53590  53.2180   5.1618 0001112  83.6221 276.4897 15.08853650106114,6917.839,95.437,540.473,538.934,0.0
53590.0,STARLINK-4689,PAYLOAD,2024-07-29 18:06:28,15.08854702,0.0001456,53.2181,3.68,75.0813,285.0341,0.00033215,5.004e-05,0.0,0 STARLINK-4689,1 53590U 22104C   24211.75449635  .00005004  00000-0  33215-3 0  9990,2 53590  53.2181   3.6800 0001456  75.0813 285.0341 15.08854702107204,6917.835,95.437,540.708,538.693,0.0
53590.0,STARLINK-4689,PAYLOAD,2024-07-30 03:38:46,15.08849584,0.0001319,53.2182,1.895,79.9894,280.1247,0.0005631,8.687e-05,0.0,0 STARLINK-4689,1 53590U 22104C   24212.15193030  .00008687  00000-0  56310-3 0  9991,2 53590  53.2182   1.8950 0001319  79.9894 280.1247 15.08849584107260,6917.851,95.437,540.629,538.804,0.0
53590.0,STARLINK-4689,PAYLOAD,2024-07-30 16:21:53,15.08828432,0.0001361,53.2183,359.5163,82.8976,277.2171,0.00031192,4.678e-05,0.0,0 STARLINK-4689,1 53590U 22104C   24212.68187418  .00004678  00000-0  31192-3 0  9999,2 53590  53.2183 359.5163 0001361  82.8976 277.2171 15.08828432106307,6917.916,95.438,540.722,538.839,0.0
53590.0,STARLINK-4689,PAYLOAD,2024-07-31 13:01:53,15.08850079,0.0001425,53.216,355.6493,87.9886,272.1269,-8.2786e-05,-1.606e-05,0.0,0 STARLINK-4689,1 53590U 22104C   24213.54298525 -.00001606  00000-0 -82786-4 0  9993,2 53590  53.2160 355.6493 0001425  87.9886 272.1269 15.08850079106430,6917.85,95.437,540.7,538.729,0.0
53590.0,STARLINK-4689,PAYLOAD,2024-07-31 14:37:17,15.08849223,0.0001347,53.2161,355.3524,85.6609,274.4537,-8.7473e-05,-1.68e-05,0.0,0 STARLINK-4689,1 53590U 22104C   24213.60922549 -.00001680  00000-0 -87473-4 0  9990,2 53590  53.2161 355.3524 0001347  85.6609 274.4537 15.08849223107482,6917.852,95.437,540.649,538.785,0.0
53590.0,STARLINK-4689,PAYLOAD,2024-07-31 19:23:26,15.08848916,0.0001306,53.2173,354.4591,78.1204,281.9934,-0.00012382,-2.258e-05,0.0,0 STARLINK-4689,1 53590U 22104C   24213.80794614 -.00002258  00000-0 -12382-3 0  9990,2 53590  53.2173 354.4591 0001306  78.1204 281.9934 15.08848916107518,6917.853,95.437,540.622,538.815,0.0
53590.0,STARLINK-4689,PAYLOAD,2024-08-01 09:41:54,15.08851975,0.0001307,53.2169,351.7844,72.5922,287.5213,-7.0183e-05,-1.405e-05,0.0,0 STARLINK-4689,1 53590U 22104C   24214.40409902 -.00001405  00000-0 -70183-4 0  9997,2 53590  53.2169 351.7844 0001307  72.5922 287.5213 15.08851975107601,6917.844,95.437,540.613,538.805,0.0
53590.0,STARLINK-4689,PAYLOAD,2024-08-01 19:14:13,15.08845909,0.0001604,53.2166,349.9976,79.0392,281.0781,0.00044748,6.842e-05,0.0,0 STARLINK-4689,1 53590U 22104C   24214.80154075  .00006842  00000-0  44748-3 0  9994,2 53590  53.2166 349.9976 0001604  79.0392 281.0781 15.08845909106626,6917.862,95.437,540.837,538.618,0.0
53590.0,STARLINK-4689,PAYLOAD,2024-08-02 01:35:45,15.08857875,0.0002068,53.2185,348.8144,89.8814,270.2415,0.00034122,5.149e-05,0.0,0 STARLINK-4689,1 53590U 22104C   24215.06649366  .00005149  00000-0  34122-3 0  9999,2 53590  53.2185 348.8144 0002068  89.8814 270.2415 15.08857875106668,6917.826,95.436,541.121,538.26,0.0
53590.0,STARLINK-4689,PAYLOAD,2024-08-02 12:43:28,15.0881354,0.0001476,53.2169,346.7266,74.7084,285.4072,-0.00042395,-7.024e-05,0.0,0 STARLINK-4689,1 53590U 22104C   24215.53019361 -.00007024  00000-0 -42395-3 0  9994,2 53590  53.2169 346.7266 0001476  74.7084 285.4072 15.08813540106732,6917.961,95.439,540.847,538.805,0.0
53590.0,STARLINK-4689,PAYLOAD,2024-08-02 14:18:51,15.08818585,0.0001502,53.2187,346.433,92.6913,267.4251,-0.00031099,-5.231e-05,0.0,0 STARLINK-4689,1 53590U 22104C   24215.59643278 -.00005231  00000-0 -31099-3 0  9997,2 53590  53.2187 346.4330 0001502  92.6913 267.4251 15.08818585107780,6917.946,95.439,540.85,538.772,0.0
53590.0,STARLINK-4689,PAYLOAD,2024-08-03 01:26:33,15.0883454,0.0001253,53.2177,344.3483,84.31,275.8035,1.9249e-05,1.8e-07,0.0,0 STARLINK-4689,1 53590U 22104C   24216.06011027  .00000018  00000-0  19249-4 0  9991,2 53590  53.2177 344.3483 0001253  84.3100 275.8035 15.08834540106819,6917.897,95.438,540.629,538.895,0.0
53590.0,STARLINK-4689,PAYLOAD,2024-08-03 14:09:38,15.0884528,0.0001591,53.2186,341.9721,104.3181,255.7988,0.00080908,0.00012614,0.0,0 STARLINK-4689,1 53590U 22104C   24216.59003188  .00012614  00000-0  80908-3 0  9992,2 53590  53.2186 341.9721 0001591 104.3181 255.7988 15.08845280107935,6917.864,95.437,540.83,538.629,0.0
53590.0,STARLINK-4689,PAYLOAD,2024-08-03 15:45:01,15.08852174,0.0001452,53.2183,341.6757,104.0704,256.045,0.0013253,0.00020874,0.0,0 STARLINK-4689,1 53590U 22104C   24216.65627234  .00020874  00000-0  13253-2 0  9998,2 53590  53.2183 341.6757 0001452 104.0704 256.0450 15.08852174106906,6917.843,95.437,540.713,538.704,0.0
53590.0,STARLINK-4689,PAYLOAD,2024-08-04 12:25:02,15.08849357,0.000134,53.2183,337.8102,103.1101,257.0041,0.0013342,0.00021015,0.0,0 STARLINK-4689,1 53590U 22104C   24217.51738883  .00021015  00000-0  13342-2 0  9994,2 53590  53.2183 337.8102 0001340 103.1101 257.0041 15.08849357107035,6917.852,95.437,540.644,538.79,0.0
53590.0,STARLINK-4689,PAYLOAD,2024-08-04 14:00:25,15.08851053,0.000152,53.218,337.5127,96.712,263.4045,0.0016097,0.00025431,0.0,0 STARLINK-4689,1 53590U 22104C   24217.58362903  .00025431  00000-0  16097-2 0  9993,2 53590  53.2180 337.5127 0001520  96.7120 263.4045 15.08851053108081,6917.847,95.437,540.763,538.66,0.0
53590.0,STARLINK-4689,PAYLOAD,2024-08-04 15:35:48,15.08858595,0.0001214,53.2167,337.2123,91.9179,268.1952,0.0025199,0.00040065,0.0,0 STARLINK-4689,1 53590U 22104C   24217.64986748  .00040065  00000-0  25199-2 0  9992,2 53590  53.2167 337.2123 0001214  91.9179 268.1952 15.08858595108098,6917.824,95.436,540.528,538.849,0.0
53590.0,STARLINK-4689,PAYLOAD,2024-08-05 01:08:06,15.08926311,0.0001355,53.2169,335.4238,77.882,282.2324,0.0049683,0.00079868,0.0,0 STARLINK-4689,1 53590U 22104C   24218.04729514  .00079868  00000-0  49683-2 0  9990,2 53590  53.2169 335.4238 0001355  77.8820 282.2324 15.08926311107113,6917.617,95.432,540.419,538.544,0.0
53590.0,STARLINK-4689,PAYLOAD,2024-08-05 13:51:11,15.08844522,0.0001225,53.2165,333.0512,96.1154,263.9977,0.00086174,0.00013455,0.0,0 STARLINK-4689,1 53590U 22104C   24218.57721722  .00013455  00000-0  86174-3 0  9998,2 53590  53.2165 333.0512 0001225  96.1154 263.9977 15.08844522107199,6917.867,95.437,540.579,538.884,0.0
